<?xml version="1.0" encoding="UTF-8"?>
<ndm xmlns:xsi="http://www.w3.org/2001/XMLSchema-instance" xsi:noNamespaceSchemaLocation="https://sanaregistry.org/r/ndmxml_unqualified/ndmxml-2.0.0-master-2.0.xsd">
<omm id="CCSDS_OMM_VERS" version="2.0">
<header><CREATION_DATE/><ORIGINATOR/></header><body><segment><metadata><OBJECT_NAME>KUIPER-00008</OBJECT_NAME><OBJECT_ID>2025-088A</OBJECT_ID><CENTER_NAME>EARTH</CENTER_NAME><REF_FRAME>TEME</REF_FRAME><TIME_SYSTEM>UTC</TIME_SYSTEM><MEAN_ELEMENT_THEORY>SGP4</MEAN_ELEMENT_THEORY></metadata><data><meanElements><EPOCH>2025-07-30T06:00:02.000160</EPOCH><MEAN_MOTION>14.98611830</MEAN_MOTION><ECCENTRICITY>.0011065</ECCENTRICITY><INCLINATION>51.8919</INCLINATION><RA_OF_ASC_NODE>21.0204</RA_OF_ASC_NODE><ARG_OF_PERICENTER>70.7142</ARG_OF_PERICENTER><MEAN_ANOMALY>184.8822</MEAN_ANOMALY></meanElements><tleParameters><EPHEMERIS_TYPE>0</EPHEMERIS_TYPE><CLASSIFICATION_TYPE>U</CLASSIFICATION_TYPE><NORAD_CAT_ID>63724</NORAD_CAT_ID><ELEMENT_SET_NO>999</ELEMENT_SET_NO><REV_AT_EPOCH>1468</REV_AT_EPOCH><BSTAR>.11795E-2</BSTAR><MEAN_MOTION_DOT>.14084E-3</MEAN_MOTION_DOT><MEAN_MOTION_DDOT>0</MEAN_MOTION_DDOT></tleParameters></data></segment></body></omm>
<omm id="CCSDS_OMM_VERS" version="2.0">
<header><CREATION_DATE/><ORIGINATOR/></header><body><segment><metadata><OBJECT_NAME>KUIPER-00009</OBJECT_NAME><OBJECT_ID>2025-088B</OBJECT_ID><CENTER_NAME>EARTH</CENTER_NAME><REF_FRAME>TEME</REF_FRAME><TIME_SYSTEM>UTC</TIME_SYSTEM><MEAN_ELEMENT_THEORY>SGP4</MEAN_ELEMENT_THEORY></metadata><data><meanElements><EPOCH>2025-07-30T14:00:01.999872</EPOCH><MEAN_MOTION>15.13994957</MEAN_MOTION><ECCENTRICITY>.0011795</ECCENTRICITY><INCLINATION>51.8890</INCLINATION><RA_OF_ASC_NODE>13.1604</RA_OF_ASC_NODE><ARG_OF_PERICENTER>99.9712</ARG_OF_PERICENTER><MEAN_ANOMALY>59.8936</MEAN_ANOMALY></meanElements><tleParameters><EPHEMERIS_TYPE>0</EPHEMERIS_TYPE><CLASSIFICATION_TYPE>U</CLASSIFICATION_TYPE><NORAD_CAT_ID>63725</NORAD_CAT_ID><ELEMENT_SET_NO>999</ELEMENT_SET_NO><REV_AT_EPOCH>1482</REV_AT_EPOCH><BSTAR>-.25868E-1</BSTAR><MEAN_MOTION_DOT>-.448483E-2</MEAN_MOTION_DOT><MEAN_MOTION_DDOT>0</MEAN_MOTION_DDOT></tleParameters></data></segment></body></omm>
<omm id="CCSDS_OMM_VERS" version="2.0">
<header><CREATION_DATE/><ORIGINATOR/></header><body><segment><metadata><OBJECT_NAME>KUIPER-00010</OBJECT_NAME><OBJECT_ID>2025-088C</OBJECT_ID><CENTER_NAME>EARTH</CENTER_NAME><REF_FRAME>TEME</REF_FRAME><TIME_SYSTEM>UTC</TIME_SYSTEM><MEAN_ELEMENT_THEORY>SGP4</MEAN_ELEMENT_THEORY></metadata><data><meanElements><EPOCH>2025-07-29T16:16:29.131680</EPOCH><MEAN_MOTION>15.36084180</MEAN_MOTION><ECCENTRICITY>.0009679</ECCENTRICITY><INCLINATION>51.8649</INCLINATION><RA_OF_ASC_NODE>15.7593</RA_OF_ASC_NODE><ARG_OF_PERICENTER>84.7488</ARG_OF_PERICENTER><MEAN_ANOMALY>275.4602</MEAN_ANOMALY></meanElements><tleParameters><EPHEMERIS_TYPE>0</EPHEMERIS_TYPE><CLASSIFICATION_TYPE>U</CLASSIFICATION_TYPE><NORAD_CAT_ID>63726</NORAD_CAT_ID><ELEMENT_SET_NO>999</ELEMENT_SET_NO><REV_AT_EPOCH>1433</REV_AT_EPOCH><BSTAR>.42807E-3</BSTAR><MEAN_MOTION_DOT>.1494E-3</MEAN_MOTION_DOT><MEAN_MOTION_DDOT>0</MEAN_MOTION_DDOT></tleParameters></data></segment></body></omm>
<omm id="CCSDS_OMM_VERS" version="2.0">
<header><CREATION_DATE/><ORIGINATOR/></header><body><segment><metadata><OBJECT_NAME>KUIPER-00011</OBJECT_NAME><OBJECT_ID>2025-088D</OBJECT_ID><CENTER_NAME>EARTH</CENTER_NAME><REF_FRAME>TEME</REF_FRAME><TIME_SYSTEM>UTC</TIME_SYSTEM><MEAN_ELEMENT_THEORY>SGP4</MEAN_ELEMENT_THEORY></metadata><data><meanElements><EPOCH>2025-07-29T18:30:12.564864</EPOCH><MEAN_MOTION>15.35566007</MEAN_MOTION><ECCENTRICITY>.0011186</ECCENTRICITY><INCLINATION>51.8594</INCLINATION><RA_OF_ASC_NODE>15.5666</RA_OF_ASC_NODE><ARG_OF_PERICENTER>92.4743</ARG_OF_PERICENTER><MEAN_ANOMALY>267.7523</MEAN_ANOMALY></meanElements><tleParameters><EPHEMERIS_TYPE>0</EPHEMERIS_TYPE><CLASSIFICATION_TYPE>U</CLASSIFICATION_TYPE><NORAD_CAT_ID>63727</NORAD_CAT_ID><ELEMENT_SET_NO>999</ELEMENT_SET_NO><REV_AT_EPOCH>1448</REV_AT_EPOCH><BSTAR>.38444E-3</BSTAR><MEAN_MOTION_DOT>.13155E-3</MEAN_MOTION_DOT><MEAN_MOTION_DDOT>0</MEAN_MOTION_DDOT></tleParameters></data></segment></body></omm>
<omm id="CCSDS_OMM_VERS" version="2.0">
<header><CREATION_DATE/><ORIGINATOR/></header><body><segment><metadata><OBJECT_NAME>KUIPER-00012</OBJECT_NAME><OBJECT_ID>2025-088E</OBJECT_ID><CENTER_NAME>EARTH</CENTER_NAME><REF_FRAME>TEME</REF_FRAME><TIME_SYSTEM>UTC</TIME_SYSTEM><MEAN_ELEMENT_THEORY>SGP4</MEAN_ELEMENT_THEORY></metadata><data><meanElements><EPOCH>2025-07-29T18:27:15.024960</EPOCH><MEAN_MOTION>15.35719406</MEAN_MOTION><ECCENTRICITY>.0011404</ECCENTRICITY><INCLINATION>51.8576</INCLINATION><RA_OF_ASC_NODE>15.5407</RA_OF_ASC_NODE><ARG_OF_PERICENTER>93.8829</ARG_OF_PERICENTER><MEAN_ANOMALY>266.3461</MEAN_ANOMALY></meanElements><tleParameters><EPHEMERIS_TYPE>0</EPHEMERIS_TYPE><CLASSIFICATION_TYPE>U</CLASSIFICATION_TYPE><NORAD_CAT_ID>63728</NORAD_CAT_ID><ELEMENT_SET_NO>999</ELEMENT_SET_NO><REV_AT_EPOCH>1443</REV_AT_EPOCH><BSTAR>.37628E-3</BSTAR><MEAN_MOTION_DOT>.12933E-3</MEAN_MOTION_DOT><MEAN_MOTION_DDOT>0</MEAN_MOTION_DDOT></tleParameters></data></segment></body></omm>
<omm id="CCSDS_OMM_VERS" version="2.0">
<header><CREATION_DATE/><ORIGINATOR/></header><body><segment><metadata><OBJECT_NAME>KUIPER-00013</OBJECT_NAME><OBJECT_ID>2025-088F</OBJECT_ID><CENTER_NAME>EARTH</CENTER_NAME><REF_FRAME>TEME</REF_FRAME><TIME_SYSTEM>UTC</TIME_SYSTEM><MEAN_ELEMENT_THEORY>SGP4</MEAN_ELEMENT_THEORY></metadata><data><meanElements><EPOCH>2025-07-30T14:00:01.999872</EPOCH><MEAN_MOTION>15.13325586</MEAN_MOTION><ECCENTRICITY>.0006249</ECCENTRICITY><INCLINATION>51.8817</INCLINATION><RA_OF_ASC_NODE>13.8045</RA_OF_ASC_NODE><ARG_OF_PERICENTER>56.7917</ARG_OF_PERICENTER><MEAN_ANOMALY>148.3765</MEAN_ANOMALY></meanElements><tleParameters><EPHEMERIS_TYPE>0</EPHEMERIS_TYPE><CLASSIFICATION_TYPE>U</CLASSIFICATION_TYPE><NORAD_CAT_ID>63729</NORAD_CAT_ID><ELEMENT_SET_NO>999</ELEMENT_SET_NO><REV_AT_EPOCH>1462</REV_AT_EPOCH><BSTAR>-.89454E-3</BSTAR><MEAN_MOTION_DOT>-.1641E-3</MEAN_MOTION_DOT><MEAN_MOTION_DDOT>0</MEAN_MOTION_DDOT></tleParameters></data></segment></body></omm>
<omm id="CCSDS_OMM_VERS" version="2.0">
<header><CREATION_DATE/><ORIGINATOR/></header><body><segment><metadata><OBJECT_NAME>KUIPER-00014</OBJECT_NAME><OBJECT_ID>2025-088G</OBJECT_ID><CENTER_NAME>EARTH</CENTER_NAME><REF_FRAME>TEME</REF_FRAME><TIME_SYSTEM>UTC</TIME_SYSTEM><MEAN_ELEMENT_THEORY>SGP4</MEAN_ELEMENT_THEORY></metadata><data><meanElements><EPOCH>2025-07-30T06:00:02.000160</EPOCH><MEAN_MOTION>15.12237166</MEAN_MOTION><ECCENTRICITY>.0009327</ECCENTRICITY><INCLINATION>51.8811</INCLINATION><RA_OF_ASC_NODE>16.3551</RA_OF_ASC_NODE><ARG_OF_PERICENTER>86.8515</ARG_OF_PERICENTER><MEAN_ANOMALY>17.5787</MEAN_ANOMALY></meanElements><tleParameters><EPHEMERIS_TYPE>0</EPHEMERIS_TYPE><CLASSIFICATION_TYPE>U</CLASSIFICATION_TYPE><NORAD_CAT_ID>63730</NORAD_CAT_ID><ELEMENT_SET_NO>999</ELEMENT_SET_NO><REV_AT_EPOCH>1437</REV_AT_EPOCH><BSTAR>.13403E-2</BSTAR><MEAN_MOTION_DOT>.23246E-3</MEAN_MOTION_DOT><MEAN_MOTION_DDOT>0</MEAN_MOTION_DDOT></tleParameters></data></segment></body></omm>
<omm id="CCSDS_OMM_VERS" version="2.0">
<header><CREATION_DATE/><ORIGINATOR/></header><body><segment><metadata><OBJECT_NAME>KUIPER-00015</OBJECT_NAME><OBJECT_ID>2025-088H</OBJECT_ID><CENTER_NAME>EARTH</CENTER_NAME><REF_FRAME>TEME</REF_FRAME><TIME_SYSTEM>UTC</TIME_SYSTEM><MEAN_ELEMENT_THEORY>SGP4</MEAN_ELEMENT_THEORY></metadata><data><meanElements><EPOCH>2025-07-30T12:00:00.999648</EPOCH><MEAN_MOTION>14.83735516</MEAN_MOTION><ECCENTRICITY>.0011406</ECCENTRICITY><INCLINATION>51.8971</INCLINATION><RA_OF_ASC_NODE>24.0483</RA_OF_ASC_NODE><ARG_OF_PERICENTER>67.1587</ARG_OF_PERICENTER><MEAN_ANOMALY>190.9945</MEAN_ANOMALY></meanElements><tleParameters><EPHEMERIS_TYPE>0</EPHEMERIS_TYPE><CLASSIFICATION_TYPE>U</CLASSIFICATION_TYPE><NORAD_CAT_ID>63731</NORAD_CAT_ID><ELEMENT_SET_NO>999</ELEMENT_SET_NO><REV_AT_EPOCH>1474</REV_AT_EPOCH><BSTAR>-.14234E-2</BSTAR><MEAN_MOTION_DOT>-.12113E-3</MEAN_MOTION_DOT><MEAN_MOTION_DDOT>0</MEAN_MOTION_DDOT></tleParameters></data></segment></body></omm>

</ndm>
