KUIPER-00008            
1 63724U 25088A   25211.25002315  .00014084  00000+0  11795-2 0  9995
2 63724  51.8919  21.0204 0011065  70.7142 184.8822 14.98611830 14683
KUIPER-00009            
1 63725U 25088B   25211.58335648 -.00448483  00000+0 -25868-1 0  9991
2 63725  51.8890  13.1604 0011795  99.9712  59.8936 15.13994957 14829
KUIPER-00010            
1 63726U 25088C   25210.67811495  .00014940  00000+0  42807-3 0  9999
2 63726  51.8649  15.7593 0009679  84.7488 275.4602 15.36084180 14332
KUIPER-00011            
1 63727U 25088D   25210.77097876  .00013155  00000+0  38444-3 0  9999
2 63727  51.8594  15.5666 0011186  92.4743 267.7523 15.35566007 14481
KUIPER-00012            
1 63728U 25088E   25210.76892390  .00012933  00000+0  37628-3 0  9999
2 63728  51.8576  15.5407 0011404  93.8829 266.3461 15.35719406 14432
KUIPER-00013            
1 63729U 25088F   25211.58335648 -.00016410  00000+0 -89454-3 0  9999
2 63729  51.8817  13.8045 0006249  56.7917 148.3765 15.13325586 14622
KUIPER-00014            
1 63730U 25088G   25211.25002315  .00023246  00000+0  13403-2 0  9990
2 63730  51.8811  16.3551 0009327  86.8515  17.5787 15.12237166 14374
KUIPER-00015            
1 63731U 25088H   25211.50001157 -.00012113  00000+0 -14234-2 0  9998
2 63731  51.8971  24.0483 0011406  67.1587 190.9945 14.83735516 14746
